GOES 18                 
1 51850U 22021A   26062.77332172  .00000083  00000+0  00000+0 0  9993
2 51850   0.0285  75.7364 0000601 319.5556 267.6184  1.00271736  5533
GOES 19                 
1 60133U 24119A   26062.92817647 -.00000262  00000+0  00000+0 0  9999
2 60133   0.0168 328.2901 0000980  50.7136  41.6200  1.00272050  5908
